[{"OBJECT_NAME":"STARLINK-5480","OBJECT_ID":"2023-021AN","EPOCH":"2026-03-09T22:00:01.999584","MEAN_MOTION":14.98352472,"ECCENTRICITY":0.0003256,"INCLINATION":70.001,"RA_OF_ASC_NODE":163.9699,"ARG_OF_PERICENTER":271.3412,"MEAN_ANOMALY":188.798,"EPHEMERIS_TYPE":0,"CLASSIFICATION_TYPE":"U","NORAD_CAT_ID":55664,"ELEMENT_SET_NO":999,"REV_AT_EPOCH":576,"BSTAR":-0.0037639134,"MEAN_MOTION_DOT":-0.00044745,"MEAN_MOTION_DDOT":0},{"OBJECT_NAME":"COSMOS 2251 DEB","OBJECT_ID":"1993-036AKM","EPOCH":"2026-03-09T06:40:10.063200","MEAN_MOTION":15.08111536,"ECCENTRICITY":0.00695902,"INCLINATION":73.9816,"RA_OF_ASC_NODE":154.5784,"ARG_OF_PERICENTER":280.7947,"MEAN_ANOMALY":78.5416,"EPHEMERIS_TYPE":0,"CLASSIFICATION_TYPE":"U","NORAD_CAT_ID":35443,"ELEMENT_SET_NO":999,"REV_AT_EPOCH":88177,"BSTAR":0.0043181541,"MEAN_MOTION_DOT":0.00071124,"MEAN_MOTION_DDOT":0}]
